ONEWEB-0210             
1 48787U 21045W   25216.60146433  .00000100  00000+0  23072-3 0  9996
2 48787  87.9084 322.3082 0002564  90.1600 269.9824 13.15548234202690
ONEWEB-0214             
1 48788U 21045X   25216.30595899  .00000036  00000+0  62026-4 0  9999
2 48788  87.9081 322.3556 0002410  96.3765 263.7640 13.15546478202623
ONEWEB-0221             
1 48789U 21045Y   25216.69337021 -.00000051  00000+0 -17076-3 0  9996
2 48789  87.9075 322.3076 0002025  91.4795 268.6567 13.15550269203902
ONEWEB-0213             
1 48790U 21045Z   25216.30198883  .00000083  00000+0  18761-3 0  9992
2 48790  87.9083 322.3927 0002124  92.7365 267.4008 13.15548014202771
ONEWEB-0212             
1 48791U 21045AA  25216.58324709  .00000144  00000+0  34886-3 0  9995
2 48791  87.9076 322.3186 0001874  98.3105 261.8238 13.15549716203949
ONEWEB-0227             
1 48792U 21045AB  25216.35427332  .00000167  00000+0  40885-3 0  9998
2 48792  87.9077 322.3840 0001949  94.0698 266.0655 13.15548493202727
ONEWEB-0224             
1 48794U 21045AD  25216.69177043  .00002375  00000+0  62712-2 0  9993
2 48794  87.9084 322.3591 0001390  74.1968 285.9315 13.15566952203789
